{
 "type": "FeatureCollection",
 "features": [
  {
   "type": "Feature",
   "properties": {
    "name": "rocket track"
   },
   "geometry": {
    "type": "LineString",
    "coordinates": [
     [
      -117.0,
      35.0,
      0.0
     ],
     [
      -117.0,
      35.0,
      0.0
     ],
     [
      -117.0,
      35.0,
      0.0
     ],
     [
      -117.0,
      35.0,
      0.0
     ],
     [
      -117.0,
      35.0,
      0.0
     ],
     [
      -117.0,
      35.0,
      0.0
     ],
     [
      -117.0,
      35.0,
      0.0
     ],
     [
      -117.0,
      35.0,
      0.0
     ],
     [
      -117.0,
      35.0,
      0.0
     ],
     [
      -117.0,
      35.0,
      0.0
     ],
     [
      -117.0,
      35.0,
      0.0
     ],
     [
      -117.0,
      35.0,
      0.0
     ],
     [
      -117.0,
      35.0,
      0.0
     ],
     [
      -117.0,
      35.0,
      0.0
     ],
     [
      -117.0,
      35.0,
      0.0
     ],
     [
      -117.0,
      35.0,
      0.0
     ],
     [
      -117.0,
      35.0,
      0.0
     ],
     [
      -117.0,
      35.0,
      0.0
     ],
     [
      -117.0,
      35.0,
      0.0
     ],
     [
      -117.0,
      35.0,
      0.0
     ],
     [
      -117.0,
      35.0,
      0.0
     ],
     [
      -117.0,
      35.0,
      0.0
     ],
     [
      -117.0,
      35.0,
      0.0
     ],
     [
      -117.0,
      35.0,
      0.0
     ],
     [
      -117.0,
      35.0,
      0.0
     ],
     [
      -117.0,
      35.0,
      0.0
     ],
     [
      -117.0,
      35.0,
      0.0
     ],
     [
      -117.0,
      35.0,
      0.0
     ],
     [
      -117.0,
      35.0,
      0.0
     ],
     [
      -117.0,
      35.0,
      0.0
     ],
     [
      -117.0,
      35.0,
      0.0
     ],
     [
      -117.0,
      35.0,
      0.0
     ],
     [
      -117.0,
      35.0,
      0.0
     ],
     [
      -117.0,
      35.0,
      0.0
     ],
     [
      -117.0,
      35.0,
      0.0
     ],
     [
      -117.0,
      35.0,
      0.0
     ],
     [
      -117.0,
      35.0,
      0.0
     ],
     [
      -117.0,
      35.0,
      0.0
     ],
     [
      -117.0,
      35.0,
      0.0
     ],
     [
      -117.0,
      35.0,
      0.0
     ],
     [
      -117.0,
      35.0,
      0.0
     ],
     [
      -116.9999802,
      35.0000067,
      180.7
     ],
     [
      -116.9999778,
      35.0000076,
      218.8
     ],
     [
      -116.9999753,
      35.0000084,
      255.9
     ],
     [
      -116.9999728,
      35.0000093,
      292.0
     ],
     [
      -116.9999704,
      35.0000101,
      327.1
     ],
     [
      -116.9999679,
      35.000011,
      361.3
     ],
     [
      -116.9999654,
      35.0000118,
      394.5
     ],
     [
      -116.9999629,
      35.0000126,
      426.9
     ],
     [
      -116.9999605,
      35.0000135,
      458.3
     ],
     [
      -116.999958,
      35.0000143,
      488.9
     ],
     [
      -116.9999555,
      35.0000152,
      518.6
     ],
     [
      -116.9999531,
      35.000016,
      547.5
     ],
     [
      -116.9999506,
      35.0000169,
      575.5
     ],
     [
      -116.9999481,
      35.0000177,
      602.7
     ],
     [
      -116.9999457,
      35.0000185,
      629.2
     ],
     [
      -116.9999432,
      35.0000194,
      654.8
     ],
     [
      -116.9999407,
      35.0000202,
      679.6
     ],
     [
      -116.9999382,
      35.0000211,
      703.7
     ],
     [
      -116.9999358,
      35.0000219,
      727.0
     ],
     [
      -116.9999333,
      35.0000228,
      749.6
     ],
     [
      -116.9999308,
      35.0000236,
      771.4
     ],
     [
      -116.9999284,
      35.0000245,
      792.4
     ],
     [
      -116.9999259,
      35.0000253,
      812.8
     ],
     [
      -116.9999234,
      35.0000261,
      832.4
     ],
     [
      -116.999921,
      35.000027,
      851.4
     ],
     [
      -116.9999185,
      35.0000278,
      869.6
     ],
     [
      -116.999916,
      35.0000287,
      887.1
     ],
     [
      -116.9999135,
      35.0000295,
      903.9
     ],
     [
      -116.9999111,
      35.0000304,
      920.1
     ],
     [
      -116.9999086,
      35.0000312,
      935.6
     ],
     [
      -116.9999037,
      35.0000329,
      964.5
     ],
     [
      -116.9999012,
      35.0000337,
      978.0
     ],
     [
      -116.9998987,
      35.0000346,
      990.8
     ],
     [
      -116.9998963,
      35.0000354,
      1003.0
     ],
     [
      -116.9998938,
      35.0000363,
      1014.5
     ],
     [
      -116.9998888,
      35.0000379,
      1035.6
     ],
     [
      -116.9998864,
      35.0000388,
      1045.2
     ],
     [
      -116.9998839,
      35.0000396,
      1054.1
     ],
     [
      -116.9998814,
      35.0000405,
      1062.5
     ],
     [
      -116.999879,
      35.0000413,
      1070.1
     ],
     [
      -116.9998765,
      35.0000422,
      1077.2
     ],
     [
      -116.999874,
      35.000043,
      1083.7
     ],
     [
      -116.9998715,
      35.0000438,
      1089.5
     ],
     [
      -116.9998691,
      35.0000447,
      1094.7
     ],
     [
      -116.9998666,
      35.0000455,
      1099.3
     ],
     [
      -116.9998641,
      35.0000464,
      1103.2
     ],
     [
      -116.9998617,
      35.0000472,
      1106.6
     ],
     [
      -116.9998592,
      35.0000481,
      1109.3
     ],
     [
      -116.9998567,
      35.0000489,
      1111.4
     ],
     [
      -116.9998543,
      35.0000497,
      1112.9
     ],
     [
      -116.9998518,
      35.0000506,
      1113.8
     ],
     [
      -116.9998493,
      35.0000514,
      1114.1
     ],
     [
      -116.9998328,
      35.0000571,
      1113.7
     ],
     [
      -116.9998164,
      35.0000627,
      1112.8
     ],
     [
      -116.9997999,
      35.0000683,
      1111.3
     ],
     [
      -116.9997834,
      35.0000739,
      1109.2
     ],
     [
      -116.999767,
      35.0000795,
      1106.6
     ],
     [
      -116.9997505,
      35.0000852,
      1103.5
     ],
     [
      -116.999734,
      35.0000908,
      1100.0
     ],
     [
      -116.9997176,
      35.0000964,
      1096.2
     ],
     [
      -116.9997011,
      35.000102,
      1092.0
     ],
     [
      -116.9996846,
      35.0001076,
      1087.5
     ],
     [
      -116.9996682,
      35.0001133,
      1082.8
     ],
     [
      -116.9996517,
      35.0001189,
      1077.9
     ],
     [
      -116.9996352,
      35.0001245,
      1072.8
     ],
     [
      -116.9996188,
      35.0001301,
      1067.6
     ],
     [
      -116.9996023,
      35.0001357,
      1062.3
     ],
     [
      -116.9995858,
      35.0001414,
      1056.8
     ],
     [
      -116.9995694,
      35.000147,
      1051.3
     ],
     [
      -116.9995529,
      35.0001526,
      1045.8
     ],
     [
      -116.9995364,
      35.0001582,
      1040.1
     ],
     [
      -116.99952,
      35.0001638,
      1034.5
     ],
     [
      -116.9995035,
      35.0001695,
      1028.8
     ],
     [
      -116.999487,
      35.0001751,
      1023.1
     ],
     [
      -116.9994706,
      35.0001807,
      1017.3
     ],
     [
      -116.9994541,
      35.0001863,
      1011.6
     ],
     [
      -116.9994376,
      35.0001919,
      1005.8
     ],
     [
      -116.9994211,
      35.0001976,
      1000.0
     ],
     [
      -116.9994047,
      35.0002032,
      994.2
     ],
     [
      -116.9993882,
      35.0002088,
      988.4
     ],
     [
      -116.9993553,
      35.0002201,
      976.8
     ],
     [
      -116.9993388,
      35.0002257,
      970.9
     ],
     [
      -116.9993223,
      35.0002313,
      965.1
     ],
     [
      -116.9993059,
      35.0002369,
      959.3
     ],
     [
      -116.9992894,
      35.0002425,
      953.5
     ],
     [
      -116.9992729,
      35.0002482,
      947.7
     ],
     [
      -116.9992565,
      35.0002538,
      941.9
     ],
     [
      -116.99924,
      35.0002594,
      936.0
     ],
     [
      -116.9992235,
      35.000265,
      930.2
     ],
     [
      -116.9992071,
      35.0002706,
      924.4
     ],
     [
      -116.9991906,
      35.0002763,
      918.6
     ],
     [
      -116.9991741,
      35.0002819,
      912.8
     ],
     [
      -116.9991577,
      35.0002875,
      907.0
     ],
     [
      -116.9991412,
      35.0002931,
      901.2
     ],
     [
      -116.9991247,
      35.0002987,
      895.4
     ],
     [
      -116.9991083,
      35.0003044,
      889.6
     ],
     [
      -116.9990918,
      35.00031,
      883.8
     ],
     [
      -116.9990753,
      35.0003156,
      878.0
     ],
     [
      -116.9990589,
      35.0003212,
      872.2
     ],
     [
      -116.9990424,
      35.0003268,
      866.4
     ],
     [
      -116.9990259,
      35.0003325,
      860.6
     ],
     [
      -116.9990094,
      35.0003381,
      854.8
     ],
     [
      -116.998993,
      35.0003437,
      849.0
     ],
     [
      -116.9989765,
      35.0003493,
      843.2
     ],
     [
      -116.99896,
      35.000355,
      837.4
     ],
     [
      -116.9989436,
      35.0003606,
      831.6
     ],
     [
      -116.9989271,
      35.0003662,
      825.8
     ],
     [
      -116.9989106,
      35.0003718,
      820.1
     ],
     [
      -116.9988942,
      35.0003774,
      814.3
     ],
     [
      -116.9988777,
      35.0003831,
      808.5
     ],
     [
      -116.9988612,
      35.0003887,
      802.7
     ],
     [
      -116.9988448,
      35.0003943,
      796.9
     ],
     [
      -116.9988283,
      35.0003999,
      791.2
     ],
     [
      -116.9988118,
      35.0004055,
      785.4
     ],
     [
      -116.9987954,
      35.0004112,
      779.6
     ],
     [
      -116.9987789,
      35.0004168,
      773.9
     ],
     [
      -116.9987624,
      35.0004224,
      768.1
     ],
     [
      -116.998746,
      35.000428,
      762.3
     ],
     [
      -116.9987295,
      35.0004336,
      756.6
     ],
     [
      -116.998713,
      35.0004393,
      750.8
     ],
     [
      -116.9986966,
      35.0004449,
      745.1
     ],
     [
      -116.9986801,
      35.0004505,
      739.3
     ],
     [
      -116.9986636,
      35.0004561,
      733.6
     ],
     [
      -116.9986472,
      35.0004617,
      727.8
     ],
     [
      -116.9986307,
      35.0004674,
      722.1
     ],
     [
      -116.9986142,
      35.000473,
      716.3
     ],
     [
      -116.9985977,
      35.0004786,
      710.6
     ],
     [
      -116.9985813,
      35.0004842,
      704.8
     ],
     [
      -116.9985648,
      35.0004898,
      699.1
     ],
     [
      -116.9985483,
      35.0004955,
      693.3
     ],
     [
      -116.9985319,
      35.0005011,
      687.6
     ],
     [
      -116.9985154,
      35.0005067,
      681.9
     ],
     [
      -116.9984989,
      35.0005123,
      676.1
     ],
     [
      -116.9984825,
      35.000518,
      670.4
     ],
     [
      -116.998466,
      35.0005236,
      664.7
     ],
     [
      -116.9984495,
      35.0005292,
      659.0
     ],
     [
      -116.9984331,
      35.0005348,
      653.2
     ],
     [
      -116.9984166,
      35.0005404,
      647.5
     ],
     [
      -116.9984001,
      35.0005461,
      641.8
     ],
     [
      -116.9983837,
      35.0005517,
      636.1
     ],
     [
      -116.9983672,
      35.0005573,
      630.3
     ],
     [
      -116.9983507,
      35.0005629,
      624.6
     ],
     [
      -116.9983343,
      35.0005685,
      618.9
     ],
     [
      -116.9983178,
      35.0005742,
      613.2
     ],
     [
      -116.9983013,
      35.0005798,
      607.5
     ],
     [
      -116.9982849,
      35.0005854,
      601.8
     ],
     [
      -116.9982684,
      35.000591,
      596.1
     ],
     [
      -116.9982519,
      35.0005966,
      590.4
     ],
     [
      -116.9982355,
      35.0006023,
      584.7
     ],
     [
      -116.998219,
      35.0006079,
      579.0
     ],
     [
      -116.9982025,
      35.0006135,
      573.3
     ],
     [
      -116.998186,
      35.0006191,
      567.6
     ],
     [
      -116.9981696,
      35.0006247,
      561.9
     ],
     [
      -116.9981531,
      35.0006304,
      556.2
     ],
     [
      -116.9981366,
      35.000636,
      550.5
     ],
     [
      -116.9981202,
      35.0006416,
      544.8
     ],
     [
      -116.9981037,
      35.0006472,
      539.1
     ],
     [
      -116.9980872,
      35.0006529,
      533.4
     ],
     [
      -116.9980708,
      35.0006585,
      527.8
     ],
     [
      -116.9980543,
      35.0006641,
      522.1
     ],
     [
      -116.9980378,
      35.0006697,
      516.4
     ],
     [
      -116.9980214,
      35.0006753,
      510.7
     ],
     [
      -116.9980049,
      35.000681,
      505.0
     ],
     [
      -116.9979884,
      35.0006866,
      499.4
     ],
     [
      -116.997972,
      35.0006922,
      493.7
     ],
     [
      -116.9979555,
      35.0006978,
      488.0
     ],
     [
      -116.997939,
      35.0007034,
      482.4
     ],
     [
      -116.9979226,
      35.0007091,
      476.7
     ],
     [
      -116.9979061,
      35.0007147,
      471.0
     ],
     [
      -116.9978896,
      35.0007203,
      465.4
     ],
     [
      -116.9978732,
      35.0007259,
      459.7
     ],
     [
      -116.9978567,
      35.0007315,
      454.0
     ],
     [
      -116.9978402,
      35.0007372,
      448.4
     ],
     [
      -116.9978237,
      35.0007428,
      442.7
     ],
     [
      -116.9978073,
      35.0007484,
      437.1
     ],
     [
      -116.9977908,
      35.000754,
      431.4
     ],
     [
      -116.9977743,
      35.0007596,
      425.8
     ],
     [
      -116.9977579,
      35.0007653,
      420.1
     ],
     [
      -116.9977414,
      35.0007709,
      414.5
     ],
     [
      -116.9977249,
      35.0007765,
      408.8
     ],
     [
      -116.997692,
      35.0007877,
      397.6
     ],
     [
      -116.9976755,
      35.0007934,
      391.9
     ],
     [
      -116.9976591,
      35.000799,
      386.3
     ],
     [
      -116.9976426,
      35.0008046,
      380.7
     ],
     [
      -116.9976261,
      35.0008102,
      375.0
     ],
     [
      -116.9976097,
      35.0008159,
      369.4
     ],
     [
      -116.9975932,
      35.0008215,
      363.8
     ],
     [
      -116.9975767,
      35.0008271,
      358.1
     ],
     [
      -116.9975603,
      35.0008327,
      352.5
     ],
     [
      -116.9975438,
      35.0008383,
      346.9
     ],
     [
      -116.9975273,
      35.000844,
      341.3
     ],
     [
      -116.9975109,
      35.0008496,
      335.7
     ],
     [
      -116.9974944,
      35.0008552,
      330.0
     ],
     [
      -116.9974779,
      35.0008608,
      324.4
     ],
     [
      -116.9974615,
      35.0008664,
      318.8
     ],
     [
      -116.997445,
      35.0008721,
      313.2
     ],
     [
      -116.9974285,
      35.0008777,
      307.6
     ],
     [
      -116.997412,
      35.0008833,
      302.0
     ],
     [
      -116.9973956,
      35.0008889,
      296.4
     ],
     [
      -116.9973791,
      35.0008945,
      290.8
     ],
     [
      -116.9973626,
      35.0009002,
      285.2
     ],
     [
      -116.9973462,
      35.0009058,
      279.6
     ],
     [
      -116.9973297,
      35.0009114,
      274.0
     ],
     [
      -116.9973132,
      35.000917,
      268.4
     ],
     [
      -116.9972968,
      35.0009226,
      262.8
     ],
     [
      -116.9972803,
      35.0009283,
      257.2
     ],
     [
      -116.9972638,
      35.0009339,
      251.6
     ],
     [
      -116.9972474,
      35.0009395,
      246.0
     ],
     [
      -116.9972309,
      35.0009451,
      240.4
     ],
     [
      -116.9972144,
      35.0009508,
      234.8
     ],
     [
      -116.997198,
      35.0009564,
      229.2
     ],
     [
      -116.9971815,
      35.000962,
      223.7
     ],
     [
      -116.997165,
      35.0009676,
      218.1
     ],
     [
      -116.9971486,
      35.0009732,
      212.5
     ],
     [
      -116.9971321,
      35.0009789,
      206.9
     ],
     [
      -116.9971156,
      35.0009845,
      201.4
     ],
     [
      -116.9970992,
      35.0009901,
      195.8
     ],
     [
      -116.9970827,
      35.0009957,
      190.2
     ],
     [
      -116.9970662,
      35.0010013,
      184.6
     ],
     [
      -116.9970498,
      35.001007,
      179.1
     ],
     [
      -116.9970333,
      35.0010126,
      173.5
     ],
     [
      -116.9970168,
      35.0010182,
      167.9
     ],
     [
      -116.9970003,
      35.0010238,
      162.4
     ],
     [
      -116.9969839,
      35.0010294,
      156.8
     ],
     [
      -116.9969674,
      35.0010351,
      151.3
     ],
     [
      -116.9969509,
      35.0010407,
      147.1
     ],
     [
      -116.9969345,
      35.0010463,
      144.8
     ],
     [
      -116.996918,
      35.0010519,
      143.0
     ],
     [
      -116.9969015,
      35.0010575,
      141.4
     ],
     [
      -116.9968851,
      35.0010632,
      139.8
     ],
     [
      -116.9968686,
      35.0010688,
      138.3
     ],
     [
      -116.9968521,
      35.0010744,
      136.7
     ],
     [
      -116.9968357,
      35.00108,
      135.2
     ],
     [
      -116.9968192,
      35.0010856,
      133.7
     ],
     [
      -116.9968027,
      35.0010913,
      132.2
     ],
     [
      -116.9967863,
      35.0010969,
      130.7
     ],
     [
      -116.9967698,
      35.0011025,
      129.2
     ],
     [
      -116.9967533,
      35.0011081,
      127.7
     ],
     [
      -116.9967369,
      35.0011138,
      126.1
     ],
     [
      -116.9967204,
      35.0011194,
      124.6
     ],
     [
      -116.9967039,
      35.001125,
      123.1
     ],
     [
      -116.9966875,
      35.0011306,
      121.6
     ],
     [
      -116.996671,
      35.0011362,
      120.1
     ],
     [
      -116.9966545,
      35.0011419,
      118.6
     ],
     [
      -116.9966381,
      35.0011475,
      117.1
     ],
     [
      -116.9966216,
      35.0011531,
      115.6
     ],
     [
      -116.9965886,
      35.0011643,
      112.5
     ],
     [
      -116.9965722,
      35.00117,
      111.0
     ],
     [
      -116.9965557,
      35.0011756,
      109.5
     ],
     [
      -116.9965392,
      35.0011812,
      108.0
     ],
     [
      -116.9965228,
      35.0011868,
      106.5
     ],
     [
      -116.9965063,
      35.0011924,
      105.0
     ],
     [
      -116.9964898,
      35.0011981,
      103.5
     ],
     [
      -116.9964734,
      35.0012037,
      102.0
     ],
     [
      -116.9964569,
      35.0012093,
      100.5
     ],
     [
      -116.9964404,
      35.0012149,
      99.0
     ],
     [
      -116.996424,
      35.0012205,
      97.5
     ],
     [
      -116.9964075,
      35.0012262,
      95.9
     ],
     [
      -116.996391,
      35.0012318,
      94.4
     ],
     [
      -116.9963746,
      35.0012374,
      92.9
     ],
     [
      -116.9963581,
      35.001243,
      91.4
     ],
     [
      -116.9963416,
      35.0012487,
      89.9
     ],
     [
      -116.9963252,
      35.0012543,
      88.4
     ],
     [
      -116.9963087,
      35.0012599,
      86.9
     ],
     [
      -116.9962922,
      35.0012655,
      85.4
     ],
     [
      -116.9962758,
      35.0012711,
      83.9
     ],
     [
      -116.9962593,
      35.0012768,
      82.4
     ],
     [
      -116.9962428,
      35.0012824,
      80.9
     ],
     [
      -116.9962263,
      35.001288,
      79.4
     ],
     [
      -116.9962099,
      35.0012936,
      77.8
     ],
     [
      -116.9961934,
      35.0012992,
      76.3
     ],
     [
      -116.9961769,
      35.0013049,
      74.8
     ],
     [
      -116.9961605,
      35.0013105,
      73.3
     ],
     [
      -116.996144,
      35.0013161,
      71.8
     ],
     [
      -116.9961275,
      35.0013217,
      70.3
     ],
     [
      -116.9961111,
      35.0013273,
      68.8
     ],
     [
      -116.9960946,
      35.001333,
      67.3
     ],
     [
      -116.9960781,
      35.0013386,
      65.8
     ],
     [
      -116.9960617,
      35.0013442,
      64.3
     ],
     [
      -116.9960287,
      35.0013554,
      61.3
     ],
     [
      -116.9960123,
      35.0013611,
      59.8
     ],
     [
      -116.9959958,
      35.0013667,
      58.3
     ],
     [
      -116.9959793,
      35.0013723,
      56.8
     ],
     [
      -116.9959629,
      35.0013779,
      55.3
     ],
     [
      -116.9959464,
      35.0013836,
      53.8
     ],
     [
      -116.9959299,
      35.0013892,
      52.2
     ],
     [
      -116.9959135,
      35.0013948,
      50.7
     ],
     [
      -116.995897,
      35.0014004,
      49.2
     ],
     [
      -116.9958805,
      35.001406,
      47.7
     ],
     [
      -116.9958641,
      35.0014117,
      46.2
     ],
     [
      -116.9958476,
      35.0014173,
      44.7
     ],
     [
      -116.9958311,
      35.0014229,
      43.2
     ],
     [
      -116.9958146,
      35.0014285,
      41.7
     ],
     [
      -116.9957982,
      35.0014341,
      40.2
     ],
     [
      -116.9957817,
      35.0014398,
      38.7
     ],
     [
      -116.9957652,
      35.0014454,
      37.2
     ],
     [
      -116.9957488,
      35.001451,
      35.7
     ],
     [
      -116.9957323,
      35.0014566,
      34.2
     ],
     [
      -116.9957158,
      35.0014622,
      32.7
     ],
     [
      -116.9956994,
      35.0014679,
      31.2
     ],
     [
      -116.9956829,
      35.0014735,
      29.7
     ],
     [
      -116.9956664,
      35.0014791,
      28.2
     ],
     [
      -116.99565,
      35.0014847,
      26.7
     ],
     [
      -116.9956335,
      35.0014903,
      25.2
     ],
     [
      -116.995617,
      35.001496,
      23.7
     ],
     [
      -116.9956006,
      35.0015016,
      22.2
     ],
     [
      -116.9955841,
      35.0015072,
      20.7
     ],
     [
      -116.9955676,
      35.0015128,
      19.2
     ],
     [
      -116.9955512,
      35.0015184,
      17.7
     ],
     [
      -116.9955347,
      35.0015241,
      16.2
     ],
     [
      -116.9955182,
      35.0015297,
      14.7
     ],
     [
      -116.9955018,
      35.0015353,
      13.2
     ],
     [
      -116.9954853,
      35.0015409,
      11.7
     ],
     [
      -116.9954688,
      35.0015466,
      10.2
     ],
     [
      -116.9954524,
      35.0015522,
      8.7
     ],
     [
      -116.9954359,
      35.0015578,
      7.2
     ],
     [
      -116.9954194,
      35.0015634,
      5.7
     ],
     [
      -116.9954029,
      35.001569,
      4.2
     ],
     [
      -116.9953865,
      35.0015747,
      2.7
     ],
     [
      -116.99537,
      35.0015803,
      1.2
     ],
     [
      -116.9953568,
      35.0015848,
      0.0
     ],
     [
      -116.9953568,
      35.0015848,
      0.0
     ],
     [
      -116.9953568,
      35.0015848,
      0.0
     ],
     [
      -116.9953568,
      35.0015848,
      0.0
     ],
     [
      -116.9953568,
      35.0015848,
      0.0
     ],
     [
      -116.9953568,
      35.0015848,
      0.0
     ],
     [
      -116.9953568,
      35.0015848,
      0.0
     ],
     [
      -116.9953568,
      35.0015848,
      0.0
     ],
     [
      -116.9953568,
      35.0015848,
      0.0
     ],
     [
      -116.9953568,
      35.0015848,
      0.0
     ],
     [
      -116.9953568,
      35.0015848,
      0.0
     ],
     [
      -116.9953568,
      35.0015848,
      0.0
     ],
     [
      -116.9953568,
      35.0015848,
      0.0
     ],
     [
      -116.9953568,
      35.0015848,
      0.0
     ]
    ]
   }
  },
  {
   "type": "Feature",
   "properties": {
    "name": "last position"
   },
   "geometry": {
    "type": "Point",
    "coordinates": [
     -116.9953568,
     35.0015848,
     0.0
    ]
   }
  }
 ]
}